{"type": "FeatureCollection", "features": [ {"type": "Feature", "properties": {"norad_id": 33905, "name": "COSMOS 2251 DEB", "group": "cosmos-2251-debris", "lat": -62.356389109799345, "lon": 156.95717727573495, "alt_km": 756.8079906130524, "timestamp": "2025-12-19T20:43:00.478681+00:00", "meta": {"OBJECT_NAME": "COSMOS 2251 DEB", "OBJECT_ID": "1993-036DJ", "EPOCH": "2025-12-18T22:05:22.216992", "MEAN_MOTION": 14.35407236, "ECCENTRICITY": 0.00584467, "INCLINATION": 73.8871, "RA_OF_ASC_NODE": 305.2034, "ARG_OF_PERICENTER": 193.4102, "MEAN_ANOMALY": 223.2519, "EPHEMERIS_TYPE": 0, "CLASSIFICATION_TYPE": "U", "NORAD_CAT_ID": 33905, "ELEMENT_SET_NO": 999, "REV_AT_EPOCH": 87776, "BSTAR": 0.00045726097, "MEAN_MOTION_DOT": 1.312e-05, "MEAN_MOTION_DDOT": 0}, "tle": {"line1": "1 33905U 93036DJ  25352.92039603  .00001312  00000+0  45726-3 0  9993", "line2": "2 33905  73.8871 305.2034 0058446 193.4102 223.2519 14.35407236877764"}}, "geometry": {"type": "Point", "coordinates": [156.95717727573495, -62.356389109799345]}}, {"type": "Feature", "properties": {"norad_id": 33906, "name": "COSMOS 2251 DEB", "group": "cosmos-2251-debris", "lat": -30.153579990520385, "lon": -61.639303868000596, "alt_km": 681.9672078855692, "timestamp": "2025-12-19T20:43:00.478692+00:00", "meta": {"OBJECT_NAME": "COSMOS 2251 DEB", "OBJECT_ID": "1993-036DK", "EPOCH": "2025-12-18T22:04:04.008576", "MEAN_MOTION": 14.57191399, "ECCENTRICITY": 0.00368442, "INCLINATION": 74.0302, "RA_OF_ASC_NODE": 309.7294, "ARG_OF_PERICENTER": 338.2353, "MEAN_ANOMALY": 81.8391, "EPHEMERIS_TYPE": 0, "CLASSIFICATION_TYPE": "U", "NORAD_CAT_ID": 33906, "ELEMENT_SET_NO": 999, "REV_AT_EPOCH": 88098, "BSTAR": 0.0014422865, "MEAN_MOTION_DOT": 6.548e-05, "MEAN_MOTION_DDOT": 0}, "tle": {"line1": "1 33906U 93036DK  25352.91949084  .00006548  00000+0  14423-2 0  9991", "line2": "2 33906  74.0302 309.7294 0036844 338.2353  81.8391 14.57191399880987"}}, "geometry": {"type": "Point", "coordinates": [-61.639303868000596, -30.153579990520385]}}, {"type": "Feature", "properties": {"norad_id": 33907, "name": "COSMOS 2251 DEB", "group": "cosmos-2251-debris", "lat": -21.150551817462308, "lon": 14.369530283279113, "alt_km": 802.3324147580015, "timestamp": "2025-12-19T20:43:00.478702+00:00", "meta": {"OBJECT_NAME": "COSMOS 2251 DEB", "OBJECT_ID": "1993-036DL", "EPOCH": "2025-12-19T04:20:01.642848", "MEAN_MOTION": 14.30560397, "ECCENTRICITY": 0.01119403, "INCLINATION": 74.0694, "RA_OF_ASC_NODE": 21.9531, "ARG_OF_PERICENTER": 75.5404, "MEAN_ANOMALY": 349.6791, "EPHEMERIS_TYPE": 0, "CLASSIFICATION_TYPE": "U", "NORAD_CAT_ID": 33907, "ELEMENT_SET_NO": 999, "REV_AT_EPOCH": 86672, "BSTAR": 0.0012010056, "MEAN_MOTION_DOT": 3.331e-05, "MEAN_MOTION_DDOT": 0}, "tle": {"line1": "1 33907U 93036DL  25353.18057457  .00003331  00000+0  12010-2 0  9993", "line2": "2 33907  74.0694  21.9531 0111940  75.5404 349.6791 14.30560397866722"}}, "geometry": {"type": "Point", "coordinates": [14.369530283279113, -21.150551817462308]}}, {"type": "Feature", "properties": {"norad_id": 33908, "name": "COSMOS 2251 DEB", "group": "cosmos-2251-debris", "lat": 44.33563129235428, "lon": -3.3351688027485555, "alt_km": 838.436886513914, "timestamp": "2025-12-19T20:43:00.478714+00:00", "meta": {"OBJECT_NAME": "COSMOS 2251 DEB", "OBJECT_ID": "1993-036DM", "EPOCH": "2025-12-18T23:35:43.191456", "MEAN_MOTION": 14.07386438, "ECCENTRICITY": 0.02225896, "INCLINATION": 73.8369, "RA_OF_ASC_NODE": 194.687, "ARG_OF_PERICENTER": 217.0414, "MEAN_ANOMALY": 141.5184, "EPHEMERIS_TYPE": 0, "CLASSIFICATION_TYPE": "U", "NORAD_CAT_ID": 33908, "ELEMENT_SET_NO": 999, "REV_AT_EPOCH": 85561, "BSTAR": 0.001542805, "MEAN_MOTION_DOT": 3.226e-05, "MEAN_MOTION_DDOT": 0}, "tle": {"line1": "1 33908U 93036DM  25352.98313879  .00003226  00000+0  15428-2 0  9993", "line2": "2 33908  73.8369 194.6870 0222589 217.0414 141.5184 14.07386438855616"}}, "geometry": {"type": "Point", "coordinates": [-3.3351688027485555, 44.33563129235428]}}, {"type": "Feature", "properties": {"norad_id": 33911, "name": "COSMOS 2251 DEB", "group": "cosmos-2251-debris", "lat": -15.424200826461565, "lon": -27.505113248253203, "alt_km": 653.2197318545532, "timestamp": "2025-12-19T20:43:00.478724+00:00", "meta": {"OBJECT_NAME": "COSMOS 2251 DEB", "OBJECT_ID": "1993-036DQ", "EPOCH": "2025-12-18T21:44:01.032864", "MEAN_MOTION": 14.75001431, "ECCENTRICITY": 0.00140943, "INCLINATION": 74.0896, "RA_OF_ASC_NODE": 149.8456, "ARG_OF_PERICENTER": 86.0047, "MEAN_ANOMALY": 66.8451, "EPHEMERIS_TYPE": 0, "CLASSIFICATION_TYPE": "U", "NORAD_CAT_ID": 33911, "ELEMENT_SET_NO": 999, "REV_AT_EPOCH": 88735, "BSTAR": 0.0015567305, "MEAN_MOTION_DOT": 0.00010474, "MEAN_MOTION_DDOT": 0}, "tle": {"line1": "1 33911U 93036DQ  25352.90556751  .00010474  00000+0  15567-2 0  9994", "line2": "2 33911  74.0896 149.8456 0014094  86.0047  66.8451 14.75001431887350"}}, "geometry": {"type": "Point", "coordinates": [-27.505113248253203, -15.424200826461565]}}, {"type": "Feature", "properties": {"norad_id": 33912, "name": "COSMOS 2251 DEB", "group": "cosmos-2251-debris", "lat": -31.2672091075878, "lon": 6.3185998024971575, "alt_km": 719.1099089374902, "timestamp": "2025-12-19T20:43:00.478735+00:00", "meta": {"OBJECT_NAME": "COSMOS 2251 DEB", "OBJECT_ID": "1993-036DR", "EPOCH": "2025-12-19T05:23:49.255296", "MEAN_MOTION": 14.51928831, "ECCENTRICITY": 0.00113321, "INCLINATION": 74.0322, "RA_OF_ASC_NODE": 177.5082, "ARG_OF_PERICENTER": 256.627, "MEAN_ANOMALY": 220.9065, "EPHEMERIS_TYPE": 0, "CLASSIFICATION_TYPE": "U", "NORAD_CAT_ID": 33912, "ELEMENT_SET_NO": 999, "REV_AT_EPOCH": 88527, "BSTAR": 0.00053129521, "MEAN_MOTION_DOT": 2.117e-05, "MEAN_MOTION_DDOT": 0}, "tle": {"line1": "1 33912U 93036DR  25353.22487564  .00002117  00000+0  53130-3 0  9990", "line2": "2 33912  74.0322 177.5082 0011332 256.6270 220.9065 14.51928831885272"}}, "geometry": {"type": "Point", "coordinates": [6.3185998024971575, -31.2672091075878]}}, {"type": "Feature", "properties": {"norad_id": 33913, "name": "COSMOS 2251 DEB", "group": "cosmos-2251-debris", "lat": -29.201148260943857, "lon": -0.4924473131178527, "alt_km": 719.3989181763254, "timestamp": "2025-12-19T20:43:00.478745+00:00", "meta": {"OBJECT_NAME": "COSMOS 2251 DEB", "OBJECT_ID": "1993-036DS", "EPOCH": "2025-12-18T22:45:02.855808", "MEAN_MOTION": 14.48510127, "ECCENTRICITY": 0.00481485, "INCLINATION": 74.0324, "RA_OF_ASC_NODE": 172.0134, "ARG_OF_PERICENTER": 273.4672, "MEAN_ANOMALY": 206.6452, "EPHEMERIS_TYPE": 0, "CLASSIFICATION_TYPE": "U", "NORAD_CAT_ID": 33913, "ELEMENT_SET_NO": 999, "REV_AT_EPOCH": 88547, "BSTAR": 0.00042635706, "MEAN_MOTION_DOT": 1.595e-05, "MEAN_MOTION_DDOT": 0}, "tle": {"line1": "1 33913U 93036DS  25352.94794972  .00001595  00000+0  42636-3 0  9991", "line2": "2 33913  74.0324 172.0134 0048148 273.4672 206.6452 14.48510127885475"}}, "geometry": {"type": "Point", "coordinates": [-0.4924473131178527, -29.201148260943857]}}, {"type": "Feature", "properties": {"norad_id": 33914, "name": "COSMOS 2251 DEB", "group": "cosmos-2251-debris", "lat": 12.730477055185249, "lon": 7.049822460935611, "alt_km": 991.6069296531232, "timestamp": "2025-12-19T20:43:00.478762+00:00", "meta": {"OBJECT_NAME": "COSMOS 2251 DEB", "OBJECT_ID": "1993-036DT", "EPOCH": "2025-12-19T06:42:42.471072", "MEAN_MOTION": 13.71988589, "ECCENTRICITY": 0.03008683, "INCLINATION": 74.0911, "RA_OF_ASC_NODE": 4.3169, "ARG_OF_PERICENTER": 105.7668, "MEAN_ANOMALY": 269.9264, "EPHEMERIS_TYPE": 0, "CLASSIFICATION_TYPE": "U", "NORAD_CAT_ID": 33914, "ELEMENT_SET_NO": 999, "REV_AT_EPOCH": 84171, "BSTAR": 0.0002041457, "MEAN_MOTION_DOT": 2.36e-06, "MEAN_MOTION_DDOT": 0}, "tle": {"line1": "1 33914U 93036DT  25353.27965823  .00000236  00000+0  20415-3 0  9996", "line2": "2 33914  74.0911   4.3169 0300868 105.7668 269.9264 13.71988589841713"}}, "geometry": {"type": "Point", "coordinates": [7.049822460935611, 12.730477055185249]}}, {"type": "Feature", "properties": {"norad_id": 33915, "name": "COSMOS 2251 DEB", "group": "cosmos-2251-debris", "lat": -43.18612278017147, "lon": 5.475266586376298, "alt_km": 849.5090179530262, "timestamp": "2025-12-19T20:43:00.478787+00:00", "meta": {"OBJECT_NAME": "COSMOS 2251 DEB", "OBJECT_ID": "1993-036DU", "EPOCH": "2025-12-18T12:02:34.834848", "MEAN_MOTION": 14.35095885, "ECCENTRICITY": 0.01041491, "INCLINATION": 74.0433, "RA_OF_ASC_NODE": 23.5471, "ARG_OF_PERICENTER": 114.5498, "MEAN_ANOMALY": 9.9412, "EPHEMERIS_TYPE": 0, "CLASSIFICATION_TYPE": "U", "NORAD_CAT_ID": 33915, "ELEMENT_SET_NO": 999, "REV_AT_EPOCH": 87840, "BSTAR": 0.00027838497, "MEAN_MOTION_DOT": 8.19e-06, "MEAN_MOTION_DDOT": 0}, "tle": {"line1": "1 33915U 93036DU  25352.50179207  .00000819  00000+0  27838-3 0  9998", "line2": "2 33915  74.0433  23.5471 0104149 114.5498   9.9412 14.35095885878407"}}, "geometry": {"type": "Point", "coordinates": [5.475266586376298, -43.18612278017147]}}, {"type": "Feature", "properties": {"norad_id": 33916, "name": "COSMOS 2251 DEB", "group": "cosmos-2251-debris", "lat": -15.623909845353307, "lon": -146.52919536192982, "alt_km": 769.230596343964, "timestamp": "2025-12-19T20:43:00.478799+00:00", "meta": {"OBJECT_NAME": "COSMOS 2251 DEB", "OBJECT_ID": "1993-036DV", "EPOCH": "2025-12-19T06:06:50.518368", "MEAN_MOTION": 13.68620837, "ECCENTRICITY": 0.03250544, "INCLINATION": 74.0523, "RA_OF_ASC_NODE": 29.8837, "ARG_OF_PERICENTER": 200.6416, "MEAN_ANOMALY": 239.0129, "EPHEMERIS_TYPE": 0, "CLASSIFICATION_TYPE": "U", "NORAD_CAT_ID": 33916, "ELEMENT_SET_NO": 999, "REV_AT_EPOCH": 83980, "BSTAR": 0.00027377242, "MEAN_MOTION_DOT": 3.17e-06, "MEAN_MOTION_DDOT": 0}, "tle": {"line1": "1 33916U 93036DV  25353.25475137  .00000317  00000+0  27377-3 0  9994", "line2": "2 33916  74.0523  29.8837 0325054 200.6416 239.0129 13.68620837839808"}}, "geometry": {"type": "Point", "coordinates": [-146.52919536192982, -15.623909845353307]}}]}